{"type":"FeatureCollection","features":[{"type":"Feature","properties":{"amenity":"drinking_water","check_date":"2022-05-14"},"geometry":{"type":"Point","coordinates":[9.5226202,47.1406252]}},{"type":"Feature","properties":{"amenity":"drinking_water","check_date":"2022-10-03"},"geometry":{"type":"Point","coordinates":[9.5211194,47.1411388]}},{"type":"Feature","properties":{"amenity":"drinking_water","fountain":"drinking"},"geometry":{"type":"Point","coordinates":[9.5632202,47.2123259]}},{"type":"Feature","properties":{"amenity":"drinking_water","wheelchair":"yes"},"geometry":{"type":"Point","coordinates":[9.5228496,47.1404256]}},{"type":"Feature","properties":{"amenity":"drinking_water","check_date":"2022-10-16","drinking_water:legal":"yes","fountain":"drinking","start_date":"2016"},"geometry":{"type":"Point","coordinates":[9.6099863,47.1029702]}},{"type":"Feature","properties":{"amenity":"drinking_water","fee":"no"},"geometry":{"type":"Point","coordinates":[9.5619463,47.2079497]}},{"type":"Feature","properties":{"amenity":"drinking_water"},"geometry":{"type":"Point","coordinates":[9.5484533,47.1973873]}},{"type":"Feature","properties":{"amenity":"drinking_water","fee":"no"},"geometry":{"type":"Point","coordinates":[9.5661842,47.2082466]}},{"type":"Feature","properties":{"amenity":"drinking_water"},"geometry":{"type":"Point","coordinates":[9.5548226,47.2329663]}},{"type":"Feature","properties":{"amenity":"drinking_water","check_date":"2023-03-18","fountain":"drinking"},"geometry":{"type":"Point","coordinates":[9.5452355,47.2239015]}},{"type":"Feature","properties":{"amenity":"drinking_water"},"geometry":{"type":"Point","coordinates":[9.5387359,47.2275368]}},{"type":"Feature","properties":{"amenity":"drinking_water"},"geometry":{"type":"Point","coordinates":[9.5822678,47.1164771]}},{"type":"Feature","properties":{"amenity":"drinking_water"},"geometry":{"type":"Point","coordinates":[9.5483757,47.0841395]}},{"type":"Feature","properties":{"amenity":"drinking_water"},"geometry":{"type":"Point","coordinates":[9.5481827,47.1419631]}},{"type":"Feature","properties":{"amenity":"drinking_water"},"geometry":{"type":"Point","coordinates":[9.5550919,47.1311051]}},{"type":"Feature","properties":{"amenity":"drinking_water"},"geometry":{"type":"Point","coordinates":[9.5542625,47.1319155]}},{"type":"Feature","properties":{"amenity":"drinking_water"},"geometry":{"type":"Point","coordinates":[9.5487962,47.1873804]}},{"type":"Feature","properties":{"amenity":"drinking_water","fountain":"drinking"},"geometry":{"type":"Point","coordinates":[9.5204504,47.1812064]}},{"type":"Feature","properties":{"amenity":"drinking_water"},"geometry":{"type":"Point","coordinates":[9.5266994,47.1459625]}},{"type":"Feature","properties":{"amenity":"drinking_water"},"geometry":{"type":"Point","coordinates":[9.5653257,47.1163646]}},{"type":"Feature","properties":{"amenity":"drinking_water"},"geometry":{"type":"Point","coordinates":[9.5446826,47.1420838]}},{"type":"Feature","properties":{"amenity":"drinking_water","bottle":"yes"},"geometry":{"type":"Point","coordinates":[9.5227864,47.1365053]}},{"type":"Feature","properties":{"amenity":"drinking_water"},"geometry":{"type":"Point","coordinates":[9.5480629,47.1987806]}},{"type":"Feature","properties":{"amenity":"drinking_water"},"geometry":{"type":"Point","coordinates":[9.5224613,47.1096802]}},{"type":"Feature","properties":{"amenity":"drinking_water","fountain":"drinking"},"geometry":{"type":"Point","coordinates":[9.493167,47.0722656]}},{"type":"Feature","properties":{"amenity":"drinking_water"},"geometry":{"type":"Point","coordinates":[9.54786,47.2303397]}},{"type":"Feature","properties":{"amenity":"drinking_water"},"geometry":{"type":"Point","coordinates":[9.5434433,47.1321509]}},{"type":"Feature","properties":{"amenity":"drinking_water"},"geometry":{"type":"Point","coordinates":[9.5213322,47.1504112]}},{"type":"Feature","properties":{"amenity":"drinking_water"},"geometry":{"type":"Point","coordinates":[9.522359,47.1509477]}},{"type":"Feature","properties":{"amenity":"drinking_water","description":"Vermutlich kein Trinkwasser."},"geometry":{"type":"Point","coordinates":[9.5334157,47.1522404]}},{"type":"Feature","properties":{"amenity":"drinking_water","ele":"1753"},"geometry":{"type":"Point","coordinates":[9.551583,47.1426872]}},{"type":"Feature","properties":{"amenity":"drinking_water"},"geometry":{"type":"Point","coordinates":[9.5430811,47.1984676]}},{"type":"Feature","properties":{"amenity":"drinking_water"},"geometry":{"type":"Point","coordinates":[9.5126838,47.1682648]}},{"type":"Feature","properties":{"amenity":"drinking_water","fountain":"drinking"},"geometry":{"type":"Point","coordinates":[9.5430575,47.1125695]}},{"type":"Feature","properties":{"access":"yes","amenity":"drinking_water","fee":"no"},"geometry":{"type":"Point","coordinates":[9.5235949,47.217346]}},{"type":"Feature","properties":{"amenity":"drinking_water"},"geometry":{"type":"Point","coordinates":[9.541508,47.0926037]}},{"type":"Feature","properties":{"amenity":"drinking_water"},"geometry":{"type":"Point","coordinates":[9.5540469,47.1427753]}},{"type":"Feature","properties":{"amenity":"drinking_water","fountain":"drinking"},"geometry":{"type":"Point","coordinates":[9.5504416,47.2156472]}},{"type":"Feature","properties":{"amenity":"drinking_water"},"geometry":{"type":"Point","coordinates":[9.5436659,47.1843623]}},{"type":"Feature","properties":{"amenity":"drinking_water"},"geometry":{"type":"Point","coordinates":[9.51904,47.2126886]}},{"type":"Feature","properties":{"amenity":"drinking_water","fountain":"drinking","name":"Weiherring-Brunnen"},"geometry":{"type":"Point","coordinates":[9.545658,47.218287]}},{"type":"Feature","properties":{"amenity":"drinking_water"},"geometry":{"type":"Point","coordinates":[9.5366043,47.2060333]}},{"type":"Feature","properties":{"amenity":"drinking_water"},"geometry":{"type":"Point","coordinates":[9.6042491,47.1217293]}},{"type":"Feature","properties":{"amenity":"drinking_water"},"geometry":{"type":"Point","coordinates":[9.5879596,47.1179668]}},{"type":"Feature","properties":{"amenity":"drinking_water"},"geometry":{"type":"Point","coordinates":[9.5956549,47.116719]}},{"type":"Feature","properties":{"amenity":"drinking_water"},"geometry":{"type":"Point","coordinates":[9.516151,47.1420021]}},{"type":"Feature","properties":{"amenity":"drinking_water"},"geometry":{"type":"Point","coordinates":[9.5247733,47.2120155]}},{"type":"Feature","properties":{"amenity":"drinking_water"},"geometry":{"type":"Point","coordinates":[9.5212066,47.1461611]}},{"type":"Feature","properties":{"amenity":"drinking_water"},"geometry":{"type":"Point","coordinates":[9.5007501,47.065552]}},{"type":"Feature","properties":{"amenity":"drinking_water"},"geometry":{"type":"Point","coordinates":[9.536847,47.0902407]}},{"type":"Feature","properties":{"amenity":"drinking_water"},"geometry":{"type":"Point","coordinates":[9.5532342,47.1199989]}},{"type":"Feature","properties":{"amenity":"drinking_water","bottle":"yes","dog":"yes","indoor":"no","wheelchair":"yes"},"geometry":{"type":"Point","coordinates":[9.508805,47.1637218]}},{"type":"Feature","properties":{"amenity":"drinking_water"},"geometry":{"type":"Point","coordinates":[9.5235136,47.1359488]}},{"type":"Feature","properties":{"amenity":"drinking_water"},"geometry":{"type":"Point","coordinates":[9.5228468,47.142675]}},{"type":"Feature","properties":{"amenity":"drinking_water"},"geometry":{"type":"Point","coordinates":[9.5245229,47.1480308]}},{"type":"Feature","properties":{"amenity":"drinking_water"},"geometry":{"type":"Point","coordinates":[9.5196595,47.1665972]}},{"type":"Feature","properties":{"amenity":"drinking_water"},"geometry":{"type":"Point","coordinates":[9.5208598,47.138896]}}]}